[
    {
        "Altitude(m)": 607897.641868758,
        "Argument of Periapsis(deg)": 0.0,
        "Eccentricity": 0.0,
        "Inclination(deg)": 60.0,
        "Latitude(deg)": -14.293088068756461,
        "Longitude(deg)": -63.38123323482236,
        "Mean Anomaly(deg)": -16.363600000000037,
        "RAAN(deg)": 45.0,
        "Satellite Name": "Test1 219",
        "Satellite Number": 219,
        "Semi-Major Axis(m)": 6980739.136638005,
        "Time(s)": 0
    },
    {
        "Altitude(m)": 607750.8421775413,
        "Argument of Periapsis(deg)": 0.00010418945913296404,
        "Eccentricity": 0.0,
        "Inclination(deg)": 60.0,
        "Latitude(deg)": -13.75892924344085,
        "Longitude(deg)": -63.094164575159844,
        "Mean Anomaly(deg)": -15.743493854538197,
        "RAAN(deg)": 44.99957995086026,
        "Satellite Name": "Test1 219",
        "Satellite Number": 219,
        "Semi-Major Axis(m)": 6980739.136638005,
        "Time(s)": 10
    },
    {
        "Altitude(m)": 607606.5667630666,
        "Argument of Periapsis(deg)": 0.0002083789182659281,
        "Eccentricity": 0.0,
        "Inclination(deg)": 60.0,
        "Latitude(deg)": -13.224295668116975,
        "Longitude(deg)": -62.8085723299029,
        "Mean Anomaly(deg)": -15.123387709076358,
        "RAAN(deg)": 44.99915990172052,
        "Satellite Name": "Test1 219",
        "Satellite Number": 219,
        "Semi-Major Axis(m)": 6980739.136638005,
        "Time(s)": 20
    },
    {
        "Altitude(m)": 607464.8599978981,
        "Argument of Periapsis(deg)": 0.00031256837739889213,
        "Eccentricity": 0.0,
        "Inclination(deg)": 60.0,
        "Latitude(deg)": -12.689207647303613,
        "Longitude(deg)": -62.52439181951577,
        "Mean Anomaly(deg)": -14.503281563614516,
        "RAAN(deg)": 44.99873985258077,
        "Satellite Name": "Test1 219",
        "Satellite Number": 219,
        "Semi-Major Axis(m)": 6980739.136638005,
        "Time(s)": 30
    },
    {
        "Altitude(m)": 607325.7649775272,
        "Argument of Periapsis(deg)": 0.0004167578365318562,
        "Eccentricity": 0.0,
        "Inclination(deg)": 60.0,
        "Latitude(deg)": -12.153685212970561,
        "Longitude(deg)": -62.24155870712639,
        "Mean Anomaly(deg)": -13.883175418152726,
        "RAAN(deg)": 44.99831980344103,
        "Satellite Name": "Test1 219",
        "Satellite Number": 219,
        "Semi-Major Axis(m)": 6980739.136638005,
        "Time(s)": 40
    },
    {
        "Altitude(m)": 607189.323502034,
        "Argument of Periapsis(deg)": 0.0005209472956648203,
        "Eccentricity": 0.0,
        "Inclination(deg)": 60.0,
        "Latitude(deg)": -11.617748138480623,
        "Longitude(deg)": -61.96000996699291,
        "Mean Anomaly(deg)": -13.26306927269088,
        "RAAN(deg)": 44.99789975430129,
        "Satellite Name": "Test1 219",
        "Satellite Number": 219,
        "Semi-Major Axis(m)": 6980739.136638005,
        "Time(s)": 50
    },
    {
        "Altitude(m)": 607055.5760584181,
        "Argument of Periapsis(deg)": 0.0006251367547977843,
        "Eccentricity": 0.0,
        "Inclination(deg)": 60.0,
        "Latitude(deg)": -11.081415952175641,
        "Longitude(deg)": -61.67968334077272,
        "Mean Anomaly(deg)": -12.64296312722909,
        "RAAN(deg)": 44.997479705161545,
        "Satellite Name": "Test1 219",
        "Satellite Number": 219,
        "Semi-Major Axis(m)": 6980739.136638005,
        "Time(s)": 60
    },
    {
        "Altitude(m)": 606924.5618035193,
        "Argument of Periapsis(deg)": 0.0007293262139307483,
        "Eccentricity": 0.0,
        "Inclination(deg)": 60.0,
        "Latitude(deg)": -10.54470795062535,
        "Longitude(deg)": -61.40051679443872,
        "Mean Anomaly(deg)": -12.022856981767198,
        "RAAN(deg)": 44.9970596560218,
        "Satellite Name": "Test1 219",
        "Satellite Number": 219,
        "Semi-Major Axis(m)": 6980739.136638005,
        "Time(s)": 70
    },
    {
        "Altitude(m)": 606796.3185476382,
        "Argument of Periapsis(deg)": 0.0008335156730637124,
        "Eccentricity": 0.0,
        "Inclination(deg)": 60.0,
        "Latitude(deg)": -10.007643211560033,
        "Longitude(deg)": -61.1224494886883,
        "Mean Anomaly(deg)": -11.402750836305408,
        "RAAN(deg)": 44.996639606882056,
        "Satellite Name": "Test1 219",
        "Satellite Number": 219,
        "Semi-Major Axis(m)": 6980739.136638005,
        "Time(s)": 80
    },
    {
        "Altitude(m)": 606670.8827387649,
        "Argument of Periapsis(deg)": 0.0009377051321966765,
        "Eccentricity": 0.0,
        "Inclination(deg)": 60.0,
        "Latitude(deg)": -9.47024060650084,
        "Longitude(deg)": -60.84542123706806,
        "Mean Anomaly(deg)": -10.782644690843568,
        "RAAN(deg)": 44.996219557742315,
        "Satellite Name": "Test1 219",
        "Satellite Number": 219,
        "Semi-Major Axis(m)": 6980739.136638005,
        "Time(s)": 90
    },
    {
        "Altitude(m)": 606548.2894474901,
        "Argument of Periapsis(deg)": 0.0010418945913296407,
        "Eccentricity": 0.0,
        "Inclination(deg)": 60.0,
        "Latitude(deg)": -8.93251881310843,
        "Longitude(deg)": -60.56937196465873,
        "Mean Anomaly(deg)": -10.162538545381729,
        "RAAN(deg)": 44.99579950860257,
        "Satellite Name": "Test1 219",
        "Satellite Number": 219,
        "Semi-Major Axis(m)": 6980739.136638005,
        "Time(s)": 100
    },
    {
        "Altitude(m)": 606428.5723526039,
        "Argument of Periapsis(deg)": 0.0011460840504626045,
        "Eccentricity": 0.0,
        "Inclination(deg)": 60.0,
        "Latitude(deg)": -8.39449632726628,
        "Longitude(deg)": -60.29424268016566,
        "Mean Anomaly(deg)": -9.542432399919889,
        "RAAN(deg)": 44.99537945946283,
        "Satellite Name": "Test1 219",
        "Satellite Number": 219,
        "Semi-Major Axis(m)": 6980739.136638005,
        "Time(s)": 110
    },
    {
        "Altitude(m)": 606311.7637273578,
        "Argument of Periapsis(deg)": 0.0012502735095955685,
        "Eccentricity": 0.0,
        "Inclination(deg)": 60.0,
        "Latitude(deg)": -7.8561914749141675,
        "Longitude(deg)": -60.01997493563669,
        "Mean Anomaly(deg)": -8.92232625445805,
        "RAAN(deg)": 44.99495941032309,
        "Satellite Name": "Test1 219",
        "Satellite Number": 219,
        "Semi-Major Axis(m)": 6980739.136638005,
        "Time(s)": 120
    },
    {
        "Altitude(m)": 606197.8944264031,
        "Argument of Periapsis(deg)": 0.0013544629687285324,
        "Eccentricity": 0.0,
        "Inclination(deg)": 60.0,
        "Latitude(deg)": -7.317622423648837,
        "Longitude(deg)": -59.74651028665315,
        "Mean Anomaly(deg)": -8.302220108996265,
        "RAAN(deg)": 44.99453936118335,
        "Satellite Name": "Test1 219",
        "Satellite Number": 219,
        "Semi-Major Axis(m)": 6980739.136638005,
        "Time(s)": 130
    },
    {
        "Altitude(m)": 606086.9938734453,
        "Argument of Periapsis(deg)": 0.0014586524278614966,
        "Eccentricity": 0.0,
        "Inclination(deg)": 60.0,
        "Latitude(deg)": -6.778807194108726,
        "Longitude(deg)": -59.47379126583721,
        "Mean Anomaly(deg)": -7.682113963534425,
        "RAAN(deg)": 44.99411931204361,
        "Satellite Name": "Test1 219",
        "Satellite Number": 219,
        "Semi-Major Axis(m)": 6980739.136638005,
        "Time(s)": 140
    },
    {
        "Altitude(m)": 605979.0900495991,
        "Argument of Periapsis(deg)": 0.0015628418869944607,
        "Eccentricity": 0.0,
        "Inclination(deg)": 60.0,
        "Latitude(deg)": -6.239763671156686,
        "Longitude(deg)": -59.20176084389975,
        "Mean Anomaly(deg)": -7.06200781807263,
        "RAAN(deg)": 44.99369926290386,
        "Satellite Name": "Test1 219",
        "Satellite Number": 219,
        "Semi-Major Axis(m)": 6980739.136638005,
        "Time(s)": 150
    },
    {
        "Altitude(m)": 605874.2094824393,
        "Argument of Periapsis(deg)": 0.0016670313461274247,
        "Eccentricity": 0.0,
        "Inclination(deg)": 60.0,
        "Latitude(deg)": -5.70050961487611,
        "Longitude(deg)": -58.9303618910724,
        "Mean Anomaly(deg)": -6.441901672610738,
        "RAAN(deg)": 44.99327921376411,
        "Satellite Name": "Test1 219",
        "Satellite Number": 219,
        "Semi-Major Axis(m)": 6980739.136638005,
        "Time(s)": 160
    },
    {
        "Altitude(m)": 605772.3772357623,
        "Argument of Periapsis(deg)": 0.0017712208052603888,
        "Eccentricity": 0.0,
        "Inclination(deg)": 60.0,
        "Latitude(deg)": -5.161062671397993,
        "Longitude(deg)": -58.65953815176907,
        "Mean Anomaly(deg)": -5.821795527148948,
        "RAAN(deg)": 44.99285916462437,
        "Satellite Name": "Test1 219",
        "Satellite Number": 219,
        "Semi-Major Axis(m)": 6980739.136638005,
        "Time(s)": 170
    },
    {
        "Altitude(m)": 605673.6169000816,
        "Argument of Periapsis(deg)": 0.001875410264393353,
        "Eccentricity": 0.0,
        "Inclination(deg)": 60.0,
        "Latitude(deg)": -4.62144038356951,
        "Longitude(deg)": -58.389233706698946,
        "Mean Anomaly(deg)": -5.201689381687109,
        "RAAN(deg)": 44.99243911548463,
        "Satellite Name": "Test1 219",
        "Satellite Number": 219,
        "Semi-Major Axis(m)": 6980739.136638005,
        "Time(s)": 180
    },
    {
        "Altitude(m)": 605577.9505838483,
        "Argument of Periapsis(deg)": 0.0019795997235263173,
        "Eccentricity": 0.0,
        "Inclination(deg)": 60.0,
        "Latitude(deg)": -4.0816602014818555,
        "Longitude(deg)": -58.11939243527728,
        "Mean Anomaly(deg)": -4.581583236225268,
        "RAAN(deg)": 44.99201906634489,
        "Satellite Name": "Test1 219",
        "Satellite Number": 219,
        "Semi-Major Axis(m)": 6980739.136638005,
        "Time(s)": 190
    }
]